ORBCOMM FM103           
1 40091U 14040F   25054.84540499  .00001980  00000+0  46495-3 0  9990
2 40091  47.0034 192.9643 0001565 153.1801 206.9165 14.57839845547564
ORBCOMM FM114           
1 41179U 15081A   25054.59671242  .00001561  00000+0  37377-3 0  9991
2 41179  47.0022 103.2564 0002503 218.8632 141.2074 14.57894457487899
ORBCOMM FM119           
1 41180U 15081B   25054.92164071  .00001881  00000+0  44372-3 0  9995
2 41180  47.0011  10.9923 0001819 274.1759  85.8918 14.57817039489192
ORBCOMM FM105           
1 41181U 15081C   25054.90603720  .00000919  00000+0  30559-3 0  9996
2 41181  47.0032   5.0608 0001432 200.0579 160.0245 14.45048730484364
ORBCOMM FM110           
1 41182U 15081D   25054.57231763  .00002107  00000+0  49200-3 0  9998
2 41182  47.0007 102.7398 0002698 316.7574  43.3100 14.57881327487763
ORBCOMM FM118           
1 41183U 15081E   25054.83006718  .00002118  00000+0  49502-3 0  9995
2 41183  47.0031 101.9581 0003194 316.9459  43.1176 14.57805580487906
ORBCOMM FM112           
1 41184U 15081F   25054.89820698  .00002203  00000+0  51318-3 0  9996
2 41184  46.9996  10.2710 0001259 257.8877 102.1868 14.57823582489131
ORBCOMM FM113           
1 41185U 15081G   25054.87500373  .00002060  00000+0  48243-3 0  9994
2 41185  47.0014  10.6879 0001461 267.6913  92.3805 14.57814253489114
